{"type": "FeatureCollection", "features": [ {"type": "Feature", "properties": {"norad_id": 33917, "name": "COSMOS 2251 DEB", "group": "cosmos-2251-debris", "lat": 13.319652975951229, "lon": -65.92604602130264, "alt_km": 847.8832163732313, "timestamp": "2025-12-15T10:55:21.537661+00:00", "meta": {"OBJECT_NAME": "COSMOS 2251 DEB", "OBJECT_ID": "1993-036DW", "EPOCH": "2025-12-14T18:18:30.356640", "MEAN_MOTION": 13.69363748, "ECCENTRICITY": 0.03313033, "INCLINATION": 74.1069, "RA_OF_ASC_NODE": 119.0762, "ARG_OF_PERICENTER": 219.5948, "MEAN_ANOMALY": 138.055, "EPHEMERIS_TYPE": 0, "CLASSIFICATION_TYPE": "U", "NORAD_CAT_ID": 33917, "ELEMENT_SET_NO": 999, "REV_AT_EPOCH": 83761, "BSTAR": 0.0008879446, "MEAN_MOTION_DOT": 1.111e-05, "MEAN_MOTION_DDOT": 0}, "tle": {"line1": "1 33917U 93036DW  25348.76285135  .00001111  00000+0  88794-3 0  9995", "line2": "2 33917  74.1069 119.0762 0331303 219.5948 138.0550 13.69363748837616"}}, "geometry": {"type": "Point", "coordinates": [-65.92604602130264, 13.319652975951229]}}, {"type": "Feature", "properties": {"norad_id": 33920, "name": "COSMOS 2251 DEB", "group": "cosmos-2251-debris", "lat": 38.12913064999366, "lon": -53.769614154516674, "alt_km": 700.2513822281917, "timestamp": "2025-12-15T10:55:21.537672+00:00", "meta": {"OBJECT_NAME": "COSMOS 2251 DEB", "OBJECT_ID": "1993-036DZ", "EPOCH": "2025-12-14T21:34:08.732352", "MEAN_MOTION": 14.58318284, "ECCENTRICITY": 0.00381438, "INCLINATION": 74.0616, "RA_OF_ASC_NODE": 294.325, "ARG_OF_PERICENTER": 300.7262, "MEAN_ANOMALY": 59.0147, "EPHEMERIS_TYPE": 0, "CLASSIFICATION_TYPE": "U", "NORAD_CAT_ID": 33920, "ELEMENT_SET_NO": 999, "REV_AT_EPOCH": 88146, "BSTAR": 0.0011755053, "MEAN_MOTION_DOT": 5.467e-05, "MEAN_MOTION_DDOT": 0}, "tle": {"line1": "1 33920U 93036DZ  25348.89871218  .00005467  00000+0  11755-2 0  9996", "line2": "2 33920  74.0616 294.3250 0038143 300.7262  59.0147 14.58318284881464"}}, "geometry": {"type": "Point", "coordinates": [-53.769614154516674, 38.12913064999366]}}, {"type": "Feature", "properties": {"norad_id": 33922, "name": "COSMOS 2251 DEB", "group": "cosmos-2251-debris", "lat": 73.11512586287681, "lon": -107.78727530345414, "alt_km": 735.0929738890563, "timestamp": "2025-12-15T10:55:21.537682+00:00", "meta": {"OBJECT_NAME": "COSMOS 2251 DEB", "OBJECT_ID": "1993-036EB", "EPOCH": "2025-12-14T21:57:27.150912", "MEAN_MOTION": 14.49516037, "ECCENTRICITY": 0.00232417, "INCLINATION": 74.0466, "RA_OF_ASC_NODE": 143.6846, "ARG_OF_PERICENTER": 254.0329, "MEAN_ANOMALY": 263.8122, "EPHEMERIS_TYPE": 0, "CLASSIFICATION_TYPE": "U", "NORAD_CAT_ID": 33922, "ELEMENT_SET_NO": 999, "REV_AT_EPOCH": 88609, "BSTAR": 0.00044053691, "MEAN_MOTION_DOT": 1.667e-05, "MEAN_MOTION_DDOT": 0}, "tle": {"line1": "1 33922U 93036EB  25348.91489758  .00001667  00000+0  44054-3 0  9992", "line2": "2 33922  74.0466 143.6846 0023241 254.0329 263.8122 14.49516037886092"}}, "geometry": {"type": "Point", "coordinates": [-107.78727530345414, 73.11512586287681]}}, {"type": "Feature", "properties": {"norad_id": 33924, "name": "COSMOS 2251 DEB", "group": "cosmos-2251-debris", "lat": 42.63839333793412, "lon": 70.42912991266188, "alt_km": 1358.4050824935312, "timestamp": "2025-12-15T10:55:21.537692+00:00", "meta": {"OBJECT_NAME": "COSMOS 2251 DEB", "OBJECT_ID": "1993-036ED", "EPOCH": "2025-12-14T21:47:02.533344", "MEAN_MOTION": 13.50228409, "ECCENTRICITY": 0.04039884, "INCLINATION": 73.9137, "RA_OF_ASC_NODE": 266.7167, "ARG_OF_PERICENTER": 301.7919, "MEAN_ANOMALY": 54.4429, "EPHEMERIS_TYPE": 0, "CLASSIFICATION_TYPE": "U", "NORAD_CAT_ID": 33924, "ELEMENT_SET_NO": 999, "REV_AT_EPOCH": 82768, "BSTAR": 0.00077639658, "MEAN_MOTION_DOT": 7.99e-06, "MEAN_MOTION_DDOT": 0}, "tle": {"line1": "1 33924U 93036ED  25348.90766821  .00000799  00000+0  77640-3 0  9994", "line2": "2 33924  73.9137 266.7167 0403988 301.7919  54.4429 13.50228409827683"}}, "geometry": {"type": "Point", "coordinates": [70.42912991266188, 42.63839333793412]}}, {"type": "Feature", "properties": {"norad_id": 33928, "name": "COSMOS 2251 DEB", "group": "cosmos-2251-debris", "lat": -72.02556702316414, "lon": -15.262018355372174, "alt_km": 720.861289188344, "timestamp": "2025-12-15T10:55:21.537703+00:00", "meta": {"OBJECT_NAME": "COSMOS 2251 DEB", "OBJECT_ID": "1993-036EH", "EPOCH": "2025-12-14T13:43:55.316064", "MEAN_MOTION": 14.47408119, "ECCENTRICITY": 0.00615452, "INCLINATION": 73.926, "RA_OF_ASC_NODE": 49.1154, "ARG_OF_PERICENTER": 342.8399, "MEAN_ANOMALY": 17.0676, "EPHEMERIS_TYPE": 0, "CLASSIFICATION_TYPE": "U", "NORAD_CAT_ID": 33928, "ELEMENT_SET_NO": 999, "REV_AT_EPOCH": 88671, "BSTAR": 0.00028253868, "MEAN_MOTION_DOT": 1.032e-05, "MEAN_MOTION_DDOT": 0}, "tle": {"line1": "1 33928U 93036EH  25348.57216801  .00001032  00000+0  28254-3 0  9997", "line2": "2 33928  73.9260  49.1154 0061545 342.8399  17.0676 14.47408119886713"}}, "geometry": {"type": "Point", "coordinates": [-15.262018355372174, -72.02556702316414]}}, {"type": "Feature", "properties": {"norad_id": 33932, "name": "COSMOS 2251 DEB", "group": "cosmos-2251-debris", "lat": -27.498602166988658, "lon": -57.66031595443843, "alt_km": 753.4212921734024, "timestamp": "2025-12-15T10:55:21.537714+00:00", "meta": {"OBJECT_NAME": "COSMOS 2251 DEB", "OBJECT_ID": "1993-036EM", "EPOCH": "2025-12-14T21:42:17.724384", "MEAN_MOTION": 14.38765454, "ECCENTRICITY": 0.00354297, "INCLINATION": 74.0344, "RA_OF_ASC_NODE": 311.9251, "ARG_OF_PERICENTER": 27.5697, "MEAN_ANOMALY": 332.7326, "EPHEMERIS_TYPE": 0, "CLASSIFICATION_TYPE": "U", "NORAD_CAT_ID": 33932, "ELEMENT_SET_NO": 999, "REV_AT_EPOCH": 88029, "BSTAR": 0.00044722172, "MEAN_MOTION_DOT": 1.358e-05, "MEAN_MOTION_DDOT": 0}, "tle": {"line1": "1 33932U 93036EM  25348.90437181  .00001358  00000+0  44722-3 0  9994", "line2": "2 33932  74.0344 311.9251 0035429  27.5697 332.7326 14.38765454880295"}}, "geometry": {"type": "Point", "coordinates": [-57.66031595443843, -27.498602166988658]}}, {"type": "Feature", "properties": {"norad_id": 33933, "name": "COSMOS 2251 DEB", "group": "cosmos-2251-debris", "lat": 47.947452788205055, "lon": -143.245322199858, "alt_km": 754.9814035932241, "timestamp": "2025-12-15T10:55:21.537724+00:00", "meta": {"OBJECT_NAME": "COSMOS 2251 DEB", "OBJECT_ID": "1993-036EN", "EPOCH": "2025-12-14T14:13:45.079104", "MEAN_MOTION": 14.33491963, "ECCENTRICITY": 0.00708068, "INCLINATION": 74.0894, "RA_OF_ASC_NODE": 56.7593, "ARG_OF_PERICENTER": 64.6079, "MEAN_ANOMALY": 296.238, "EPHEMERIS_TYPE": 0, "CLASSIFICATION_TYPE": "U", "NORAD_CAT_ID": 33933, "ELEMENT_SET_NO": 999, "REV_AT_EPOCH": 87811, "BSTAR": 0.00031732497, "MEAN_MOTION_DOT": 8.77e-06, "MEAN_MOTION_DDOT": 0}, "tle": {"line1": "1 33933U 93036EN  25348.59288286  .00000877  00000+0  31732-3 0  9992", "line2": "2 33933  74.0894  56.7593 0070806  64.6079 296.2380 14.33491963878111"}}, "geometry": {"type": "Point", "coordinates": [-143.245322199858, 47.947452788205055]}}, {"type": "Feature", "properties": {"norad_id": 33934, "name": "COSMOS 2251 DEB", "group": "cosmos-2251-debris", "lat": 42.41192624340169, "lon": -99.75892113239829, "alt_km": 690.8882927708364, "timestamp": "2025-12-15T10:55:21.537734+00:00", "meta": {"OBJECT_NAME": "COSMOS 2251 DEB", "OBJECT_ID": "1993-036EP", "EPOCH": "2025-12-14T17:50:53.569248", "MEAN_MOTION": 14.59131494, "ECCENTRICITY": 0.0015593, "INCLINATION": 74.0377, "RA_OF_ASC_NODE": 96.7531, "ARG_OF_PERICENTER": 220.4749, "MEAN_ANOMALY": 139.5257, "EPHEMERIS_TYPE": 0, "CLASSIFICATION_TYPE": "U", "NORAD_CAT_ID": 33934, "ELEMENT_SET_NO": 999, "REV_AT_EPOCH": 88768, "BSTAR": 0.00088499872, "MEAN_MOTION_DOT": 4.147e-05, "MEAN_MOTION_DDOT": 0}, "tle": {"line1": "1 33934U 93036EP  25348.74367557  .00004147  00000+0  88500-3 0  9998", "line2": "2 33934  74.0377  96.7531 0015593 220.4749 139.5257 14.59131494887684"}}, "geometry": {"type": "Point", "coordinates": [-99.75892113239829, 42.41192624340169]}}, {"type": "Feature", "properties": {"norad_id": 33936, "name": "COSMOS 2251 DEB", "group": "cosmos-2251-debris", "lat": 67.90351750188749, "lon": 77.19498051114526, "alt_km": 692.6698968112441, "timestamp": "2025-12-15T10:55:21.537745+00:00", "meta": {"OBJECT_NAME": "COSMOS 2251 DEB", "OBJECT_ID": "1993-036ER", "EPOCH": "2025-12-14T19:47:00.156768", "MEAN_MOTION": 14.60287096, "ECCENTRICITY": 0.0027392, "INCLINATION": 74.0191, "RA_OF_ASC_NODE": 33.5, "ARG_OF_PERICENTER": 188.523, "MEAN_ANOMALY": 171.5475, "EPHEMERIS_TYPE": 0, "CLASSIFICATION_TYPE": "U", "NORAD_CAT_ID": 33936, "ELEMENT_SET_NO": 999, "REV_AT_EPOCH": 88920, "BSTAR": 0.00052643049, "MEAN_MOTION_DOT": 2.526e-05, "MEAN_MOTION_DDOT": 0}, "tle": {"line1": "1 33936U 93036ER  25348.82430737  .00002526  00000+0  52643-3 0  9998", "line2": "2 33936  74.0191  33.5000 0027392 188.5230 171.5475 14.60287096889209"}}, "geometry": {"type": "Point", "coordinates": [77.19498051114526, 67.90351750188749]}}, {"type": "Feature", "properties": {"norad_id": 33938, "name": "COSMOS 2251 DEB", "group": "cosmos-2251-debris", "lat": 22.30605588763359, "lon": 15.366910373532312, "alt_km": 742.7018729783767, "timestamp": "2025-12-15T10:55:21.537756+00:00", "meta": {"OBJECT_NAME": "COSMOS 2251 DEB", "OBJECT_ID": "1993-036ET", "EPOCH": "2025-12-14T17:55:58.533600", "MEAN_MOTION": 14.46800779, "ECCENTRICITY": 0.00168559, "INCLINATION": 74.0449, "RA_OF_ASC_NODE": 203.4283, "ARG_OF_PERICENTER": 285.4272, "MEAN_ANOMALY": 145.7562, "EPHEMERIS_TYPE": 0, "CLASSIFICATION_TYPE": "U", "NORAD_CAT_ID": 33938, "ELEMENT_SET_NO": 999, "REV_AT_EPOCH": 88429, "BSTAR": 0.00043351896, "MEAN_MOTION_DOT": 1.546e-05, "MEAN_MOTION_DDOT": 0}, "tle": {"line1": "1 33938U 93036ET  25348.74720525  .00001546  00000+0  43352-3 0  9996", "line2": "2 33938  74.0449 203.4283 0016855 285.4272 145.7562 14.46800779884290"}}, "geometry": {"type": "Point", "coordinates": [15.366910373532312, 22.30605588763359]}}]}